ORBCOMM FM103 [+]       
1 40091U 14040F   23249.14991445  .00000808  00000+0  22021-3 0  9995
2 40091  47.0054 201.7008 0001744 206.1676 153.9121 14.55858549486372
ORBCOMM FM114 [+]       
1 41179U 15081A   23248.70553206  .00000886  00000+0  23764-3 0  9990
2 41179  47.0028 113.1663 0001894 244.0662 116.0028 14.55878064409663
ORBCOMM FM119 [-]       
1 41180U 15081B   23249.35828431  .00000778  00000+0  21344-3 0  9991
2 41180  47.0026  19.2856 0001876 292.5992  67.4694 14.55855348410960
ORBCOMM FM105 [-]       
1 41181U 15081C   23249.28149662  .00000308  00000+0  13500-3 0  9990
2 41181  47.0028 324.2749 0002634 278.9362  81.1220 14.43995030406890
ORBCOMM FM110 [+]       
1 41182U 15081D   23249.09412266  .00001010  00000+0  26558-3 0  9991
2 41182  47.0017 110.7664 0001545  72.6357 287.4697 14.55870211409726
ORBCOMM FM118 [+]       
1 41183U 15081E   23249.00302346  .00000944  00000+0  25072-3 0  9995
2 41183  47.0038 111.4542 0001783  69.1873 290.9203 14.55877287409712
ORBCOMM FM112 [+]       
1 41184U 15081F   23249.06192371  .00000860  00000+0  23196-3 0  9999
2 41184  47.0005  19.9451 0001969 274.3153  85.7507 14.55853306410912
ORBCOMM FM113 [+]       
1 41185U 15081G   23249.45017935  .00000962  00000+0  25486-3 0  9992
2 41185  47.0026  18.3353 0001514 281.9596  78.1118 14.55868499410970
